     4.02           NAVIGATION DATA     M                   RINEX VERSION / TYPE
cssrlib             Unknown             20250628 141700 UTC PGM / RUN BY / DATE 
    18                                                      LEAP SECONDS        
                                                            END OF HEADER       
C58 2025 06 25 04 59 46-9.765625000000E-04-1.879865152432E-10 0.000000000000E+00
     3.100000000000E+01-4.206250000000E+01 3.190490039574E-09 9.737284993576E-02
    -2.037733793259E-06 6.833153311163E-04 9.928829967976E-06 5.282618175507E+03
     2.772000000000E+05-4.703179001808E-08 1.971576625017E+00 5.122274160385E-08
     9.749307371385E-01 1.670312500000E+02 9.398374360931E-01-6.581345568031E-09
    -2.007226466182E-10                    1.016000000000E+03                   
     2.000000000000E+00 1.000000000000E+00-9.000000000000E-09 0.000000000000E+00
     4.320140000000E+05 2.500000000000E+01                                      
> EPH C16 D1
C16 2025 06 26 23 59 46-5.363209638745E-04-3.639755163931E-11 0.000000000000E+00
     1.000000000000E+00-5.656250000000E+00 1.494347959876E-09-2.761347054103E-01
    -1.499429345131E-07 8.832235471345E-03 1.151254400611E-05 6.493780920029E+03
     4.320000000000E+05 1.564621925354E-07-1.820342440524E+00-1.583248376846E-07
     9.619582101292E-01-1.187187500000E+02-2.161169583628E+00-1.701856603444E-09
     1.005041864028E-09                    1.016000000000E+03                   
     2.000000000000E+00 0.000000000000E+00-2.800000000000E-09 4.600000000000E-09
     4.320140000000E+05 0.000000000000E+00                                      
> EPH C14 D1
C14 2025 06 26 23 59 46-5.377532215789E-04-4.305711343022E-11 3.252606517457E-19
     8.000000000000E+00-1.895312500000E+02 3.376212061356E-09 1.123936461448E+00
    -9.435229003429E-06 1.350887818262E-03 6.079673767090E-06 5.282641506195E+03
     4.320000000000E+05 2.002343535423E-08 2.867083478381E+00-7.450580596924E-09
     9.817601946414E-01 2.497343750000E+02 6.204210704565E-03-6.710279510076E-09
    -2.250093725435E-10                    1.016000000000E+03                   
     2.000000000000E+00 0.000000000000E+00 7.200000000000E-09 2.000000000000E-09
     4.320140000000E+05 7.000000000000E+00                                      
> EPH C40 D1
C40 2025 06 26 23 59 46-1.500318758190E-04-2.699174217469E-12 0.000000000000E+00
     1.000000000000E+00 4.318281250000E+02 3.021554431299E-10-1.373397063226E+00
     1.402664929628E-05 4.478972521611E-03 2.882350236177E-05 6.492944396973E+03
     4.320000000000E+05-3.119930624962E-07 2.495709467631E-01-3.632158041000E-07
     9.678929513236E-01-6.307187500000E+02-3.036882075745E+00-1.259695328510E-09
    -1.001113128952E-09                    1.016000000000E+03                   
     2.000000000000E+00 0.000000000000E+00 9.000000000000E-10 9.000000000000E-10
     4.320140000000E+05 1.000000000000E+00                                      
> EPH C08 D1
C08 2025 06 26 23 59 46-6.114216521382E-04-6.488409809435E-11 0.000000000000E+00
     1.000000000000E+00-4.047343750000E+02 9.968272361413E-10 2.890837220094E+00
    -1.276051625609E-05 3.077117027715E-03-1.402199268341E-05 6.493608774185E+03
     4.320000000000E+05 7.124617695808E-08 2.323659353030E+00 4.260800778866E-07
     1.080268864414E+00 7.048281250000E+02 3.029776186705E+00-2.570821370743E-09
    -3.182275411687E-10                    1.016000000000E+03                   
     2.000000000000E+00 0.000000000000E+00 1.130000000000E-08-7.000000000000E-10
     4.320140000000E+05 0.000000000000E+00                                      
> EPH C38 D1
C38 2025 06 26 23 59 46 2.330489223823E-04 2.080113858938E-12 0.000000000000E+00
     1.000000000000E+00-3.780000000000E+02 1.267195640928E-09 2.377724254102E+00
    -1.199916005135E-05 2.239342662506E-03-1.720292493701E-05 6.492957872391E+03
     4.320000000000E+05-1.122243702412E-07 2.285330498514E+00 4.027970135212E-07
     1.015516613852E+00 7.893906250000E+02-2.534297217686E+00-2.789044746337E-09
    -2.592965150264E-10                    1.016000000000E+03                   
     2.000000000000E+00 0.000000000000E+00 3.000000000000E-09 3.000000000000E-09
     4.320140000000E+05 1.000000000000E+00                                      
> EPH C41 D1
C41 2025 06 26 23 59 46-9.174705483019E-04-4.811262499516E-12 0.000000000000E+00
     1.000000000000E+00-1.881093750000E+02 3.402641733686E-09 1.106279796560E+00
    -9.192619472742E-06 1.536679570563E-03 5.024485290051E-06 5.282635799408E+03
     4.320000000000E+05 7.776543498039E-08 2.865202149639E+00 4.796311259270E-08
     9.820126562660E-01 2.745468750000E+02-1.124366288723E+00-6.694207412037E-09
    -1.660783464012E-10                    1.016000000000E+03                   
     2.000000000000E+00 0.000000000000E+00-2.330000000000E-08-2.330000000000E-08
     4.320140000000E+05 1.000000000000E+00                                      
> EPH C07 D1
C07 2025 06 26 23 59 46 5.874499911442E-04 2.796252118742E-11 0.000000000000E+00
     1.000000000000E+00 1.723750000000E+02 1.097545717185E-09-1.836101073071E+00
     5.593989044428E-06 4.661308135837E-03 2.693664282560E-05 6.493116327286E+03
     4.320000000000E+05-1.946464180946E-07 1.014915377928E-01-3.981404006481E-07
     8.417780518690E-01-6.156093750000E+02-2.593340875171E+00-1.612924327630E-09
    -1.250409227420E-09                    1.016000000000E+03                   
     2.000000000000E+00 0.000000000000E+00 1.510000000000E-08 9.000000000000E-10
     4.320140000000E+05 0.000000000000E+00                                      
> EPH C10 D1
C10 2025 06 26 23 59 46-4.591594915837E-05-2.016697919771E-11 0.000000000000E+00
     1.000000000000E+00 1.775156250000E+02 1.100402979058E-09-2.174607501451E+00
     5.734618753195E-06 1.076765451580E-02 2.653244882822E-05 6.493126543045E+03
     4.320000000000E+05-3.222376108170E-07 9.632583361476E-02-3.329478204250E-07
     8.441652927928E-01-6.038437500000E+02-2.457493763977E+00-1.571494030463E-09
    -1.185049362063E-09                    1.016000000000E+03                   
     2.000000000000E+00 0.000000000000E+00 6.100000000000E-09 3.000000000000E-09
     4.320140000000E+05 0.000000000000E+00                                      
> EPH S30 SBAS
S30 2025 06 27 00 02 08 6.640329957008E-07 0.000000000000E+00 4.320330000000E+05
    -3.229583152000E+04-3.249375000000E-03 3.750000000000E-08 1.000000000000E+00
     2.704636440000E+04-3.400000000000E-04 1.750000000000E-07 0.000000000000E+00
    -1.553492800000E+03 8.965600000000E-02 4.125000000000E-06 5.900000000000E+01
> EPH S43 SBAS
S43 2025 06 27 00 02 08 3.608874976635E-07 0.000000000000E+00 4.320330000000E+05
    -1.471519184000E+04-1.676875000000E-03 2.500000000000E-08 1.000000000000E+00
     3.949291848000E+04-1.550000000000E-04 1.250000000000E-08 0.000000000000E+00
    -7.157692000000E+02 6.831600000000E-02 1.875000000000E-06 6.100000000000E+01
> EPH S44 SBAS
S44 2025 06 27 00 02 08-8.195638656616E-07 0.000000000000E+00 4.320330000000E+05
     7.279801760000E+03 7.787500000000E-04 2.500000000000E-07 1.000000000000E+00
     4.150467080000E+04 3.504375000000E-03-5.000000000000E-08 0.000000000000E+00
    -1.506236800000E+03 1.110760000000E-01 4.000000000000E-06 6.000000000000E+01
> EPH G17 CNAV
G17 2025 06 27 01 30 00 2.165858168155E-04-1.685052097855E-11 0.000000000000E+00
    -7.843494415283E-03 9.323437500000E+01 3.987308944565E-09-2.588036714574E+00
     4.749745130539E-06 1.303612667834E-02 1.232791692019E-05 5.153712333683E+03
     4.032000000000E+05 1.136213541031E-07 2.988124781906E-01 6.891787052155E-08
     9.633384477360E-01 1.419140625000E+02-1.209170240988E+00-7.375250729418E-09
    -4.846630453041E-10 8.022097545420E-14-5.000000000000E+00 2.000000000000E+00
    -3.000000000000E+00 1.000000000000E+00-1.117587089539E-08 7.000000000000E+00
    -8.440110832453E-10 7.014023140073E-09 0.000000000000E+00 0.000000000000E+00
     4.320120000000E+05 2.372000000000E+03 0.000000000000E+00                   
> EPH C59 D2
C59 2025 06 26 23 59 46 6.647314876318E-07-1.065814103640E-13 0.000000000000E+00
     1.000000000000E+00-5.367812500000E+02-5.250218692682E-11-8.148746285134E-04
    -1.733331009746E-05 4.128077998757E-04 2.157595008612E-05 6.493462078094E+03
     4.320000000000E+05-2.374872565269E-07-2.981221347561E+00 1.532025635242E-07
     1.335847405692E-01-6.550156250000E+02 6.334920679446E-02 1.091831193437E-09
     1.122189600844E-09                    1.016000000000E+03                   
     2.000000000000E+00 0.000000000000E+00 4.200000000000E-08 4.200000000000E-08
     4.320140000000E+05 1.000000000000E+00                                      
> EPH C04 D2
C04 2025 06 26 23 59 46 1.872373977676E-04 7.958078640513E-13 0.000000000000E+00
     1.000000000000E+00-7.862968750000E+02-1.944366704963E-09-2.925047645690E-03
    -2.548051998019E-05 4.940319340676E-04 1.396099105477E-05 6.493441066742E+03
     4.320000000000E+05-1.667067408562E-07 3.070340002614E+00-4.516914486885E-08
     1.327834579126E-01-4.267500000000E+02 2.802726009428E+00 3.054412942845E-09
     9.325388439860E-10                    1.016000000000E+03                   
     2.000000000000E+00 0.000000000000E+00 5.500000000000E-09-8.300000000000E-09
     4.320140000000E+05 0.000000000000E+00                                      
> EPH C62 D2
